{"type":"FeatureCollection","features":[{"type":"Feature","properties":{"nome":"Tocantins"},"geometry":{"type":"Polygon","coordinates":[[[-47.4303,-6.4226],[-47.4097,-6.3664],[-47.4086,-6.3281],[-47.3786,-6.2728],[-47.3807,-6.25],[-47.4232,-6.1602],[-47.4345,-6.0931],[-47.4302,-6.0684],[-47.4394,-6.0118],[-47.4477,-5.9899],[-47.4305,-5.9378],[-47.4379,-5.8571],[-47.4423,-5.8308],[-47.4826,-5.7593],[-47.4931,-5.71],[-47.4737,-5.662],[-47.4769,-5.6373],[-47.4797,-5.6217],[-47.4833,-5.5649],[-47.5001,-5.5256],[-47.5603,-5.4632],[-47.6186,-5.4597],[-47.6804,-5.4154],[-47.7443,-5.3801],[-47.8275,-5.3866],[-47.8676,-5.3428],[-47.8667,-5.3053],[-47.8856,-5.2607],[-47.9373,-5.2396],[-48.0147,-5.238],[-48.0691,-5.2715],[-48.1849,-5.257],[-48.225,-5.2355],[-48.2934,-5.204],[-48.3287,-5.1966],[-48.3639,-5.1684],[-48.4872,-5.1939],[-48.5195,-5.1921],[-48.5611,-5.2302],[-48.5686,-5.2829],[-48.6061,-5.3365],[-48.6584,-5.3082],[-48.6992,-5.3201],[-48.7121,-5.353],[-48.7552,-5.3492],[-48.7369,-5.374],[-48.6505,-5.3849],[-48.6291,-5.4101],[-48.5967,-5.4225],[-48.5575,-5.4167],[-48.5139,-5.4298],[-48.4415,-5.408],[-48.3935,-5.3942],[-48.3472,-5.4354],[-48.3281,-5.4966],[-48.2787,-5.5404],[-48.1947,-5.5631],[-48.1382,-5.6027],[-48.1412,-5.6544],[-48.1723,-5.7086],[-48.2306,-5.7293],[-48.2757,-5.7265],[-48.2902,-5.7435],[-48.2998,-5.796],[-48.292,-5.8368],[-48.2301,-5.9225],[-48.2329,-5.9476],[-48.2968,-5.9699],[-48.3347,-6.0043],[-48.3297,-6.0398],[-48.2985,-6.0501],[-48.288,-6.0976],[-48.3245,-6.1327],[-48.3913,-6.1467],[-48.4319,-6.1773],[-48.4361,-6.2014],[-48.4127,-6.2813],[-48.4171,-6.2986],[-48.3757,-6.345],[-48.3827,-6.3796],[-48.4477,-6.3512],[-48.5002,-6.3509],[-48.5406,-6.4008],[-48.6072,-6.448],[-48.6261,-6.4785],[-48.6337,-6.4914],[-48.6645,-6.5677],[-48.652,-6.64],[-48.6663,-6.6642],[-48.7291,-6.6893],[-48.7691,-6.7307],[-48.8259,-6.7547],[-48.8532,-6.7491],[-48.9139,-6.7574],[-48.9637,-6.7795],[-49.0189,-6.7842],[-49.0376,-6.8093],[-49.0834,-6.8433],[-49.1153,-6.8699],[-49.1719,-6.8929],[-49.2095,-6.9254],[-49.2174,-6.9615],[-49.1935,-7.0407],[-49.1938,-7.1298],[-49.1864,-7.1967],[-49.1853,-7.2352],[-49.2339,-7.3289],[-49.264,-7.3642],[-49.378,-7.4964],[-49.3816,-7.5691],[-49.361,-7.6149],[-49.3423,-7.6558],[-49.2212,-7.7616],[-49.1607,-7.7914],[-49.1501,-7.8121],[-49.1673,-7.8564],[-49.1632,-7.9213],[-49.182,-7.977],[-49.1756,-8.0094],[-49.1767,-8.0615],[-49.1932,-8.0765],[-49.221,-8.2038],[-49.2487,-8.2554],[-49.2833,-8.3796],[-49.3494,-8.4184],[-49.3915,-8.4898],[-49.3996,-8.5451],[-49.4099,-8.58],[-49.4515,-8.6125],[-49.4818,-8.6737],[-49.5434,-8.7614],[-49.5924,-8.8395],[-49.6844,-8.8565],[-49.7677,-8.9337],[-49.7937,-8.9794],[-49.8426,-9.0273],[-49.8514,-9.0637],[-49.8626,-9.0815],[-49.9054,-9.1697],[-49.9669,-9.2311],[-49.9969,-9.2377],[-50.0027,-9.2653],[-50.0378,-9.2894],[-50.0555,-9.3347],[-50.0528,-9.3727],[-50.0901,-9.4316],[-50.1053,-9.4754],[-50.0896,-9.5457],[-50.1074,-9.5943],[-50.1378,-9.6248],[-50.15,-9.6928],[-50.1991,-9.7617],[-50.2248,-9.8412],[-50.2655,-9.9127],[-50.2779,-9.9708],[-50.3026,-10.0354],[-50.3398,-10.0609],[-50.3778,-10.1107],[-50.3983,-10.1555],[-50.382,-10.2121],[-50.4231,-10.3274],[-50.4181,-10.3546],[-50.4483,-10.3916],[-50.4737,-10.4049],[-50.4868,-10.462],[-50.4826,-10.49],[-50.5168,-10.5055],[-50.5197,-10.5625],[-50.5414,-10.6093],[-50.5632,-10.6113],[-50.6033,-10.6598],[-50.6035,-10.6609],[-50.5706,-10.7525],[-50.5969,-10.8047],[-50.6122,-10.8103],[-50.619,-10.8641],[-50.6008,-10.9007],[-50.6326,-10.9319],[-50.6095,-11.0674],[-50.6645,-11.1516],[-50.6547,-11.215],[-50.6713,-11.2867],[-50.6999,-11.3131],[-50.7285,-11.3826],[-50.7421,-11.4603],[-50.7389,-11.5445],[-50.716,-11.579],[-50.6701,-11.5816],[-50.6575,-11.5928],[-50.6637,-11.6775],[-50.7173,-11.7274],[-50.722,-11.7397],[-50.691,-11.8172],[-50.6863,-11.859],[-50.6393,-11.8846],[-50.668,-11.9301],[-50.6568,-11.9668],[-50.6822,-11.9909],[-50.6871,-12.0356],[-50.6676,-12.0646],[-50.6814,-12.2169],[-50.6323,-12.2686],[-50.6489,-12.2991],[-50.6446,-12.3459],[-50.6269,-12.384],[-50.6337,-12.4139],[-50.6236,-12.4553],[-50.6471,-12.4855],[-50.6623,-12.5323],[-50.7001,-12.5951],[-50.7013,-12.6435],[-50.6839,-12.6481],[-50.6562,-12.646],[-50.6548,-12.6792],[-50.623,-12.7346],[-50.6254,-12.8],[-50.567,-12.8434],[-50.5131,-12.8446],[-50.511,-12.8609],[-50.4842,-12.8089],[-50.4755,-12.7713],[-50.4874,-12.7445],[-50.4789,-12.7126],[-50.4316,-12.6884],[-50.4348,-12.6577],[-50.4174,-12.6232],[-50.3696,-12.5581],[-50.3315,-12.5355],[-50.3055,-12.4924],[-50.2537,-12.4623],[-50.2058,-12.4452],[-50.1418,-12.3954],[-50.2152,-12.482],[-50.2293,-12.5316],[-50.1934,-12.5638],[-50.2448,-12.5975],[-50.2368,-12.6241],[-50.2684,-12.6517],[-50.2958,-12.7107],[-50.3108,-12.7916],[-50.2856,-12.8397],[-50.2253,-12.86],[-50.1852,-12.8936],[-50.0897,-12.9082],[-49.9778,-12.9406],[-49.9088,-12.9751],[-49.3683,-13.2723],[-49.3394,-13.2534],[-49.3487,-13.2172],[-49.3417,-13.1243],[-49.3551,-13.1073],[-49.3361,-13.0632],[-49.3031,-13.0288],[-49.2806,-12.9703],[-49.2514,-12.9304],[-49.2377,-12.8838],[-49.2107,-12.8779],[-49.1887,-12.8505],[-49.1177,-12.7901],[-49.1046,-12.8354],[-49.0734,-12.8551],[-49.0878,-12.8907],[-49.0323,-12.9024],[-48.9756,-12.9569],[-48.8798,-12.8171],[-48.8703,-12.8033],[-48.8469,-12.8091],[-48.8397,-12.8432],[-48.7363,-12.9214],[-48.7317,-12.9846],[-48.7174,-13.0015],[-48.6698,-12.9957],[-48.6377,-13.017],[-48.6276,-13.0511],[-48.6005,-13.0589],[-48.5759,-13.1242],[-48.5886,-13.2548],[-48.5999,-13.288],[-48.5801,-13.3133],[-48.554,-13.3034],[-48.5537,-13.2042],[-48.5304,-13.1923],[-48.5161,-13.1391],[-48.4686,-13.1587],[-48.477,-13.178],[-48.4619,-13.2752],[-48.3848,-13.2642],[-48.3417,-13.2317],[-48.2921,-13.22],[-48.2352,-13.1761],[-48.1802,-13.152],[-48.1437,-13.1525],[-48.1659,-13.1893],[-48.1668,-13.2326],[-48.1533,-13.2797],[-48.1699,-13.3003],[-48.1562,-13.3079],[-48.0791,-13.2853],[-48.0625,-13.2357],[-48.0329,-13.2744],[-47.981,-13.2843],[-47.966,-13.3135],[-47.9373,-13.2906],[-47.8855,-13.3203],[-47.8236,-13.3117],[-47.7982,-13.329],[-47.6797,-13.4682],[-47.6241,-13.3761],[-47.6501,-13.3488],[-47.6585,-13.295],[-47.6397,-13.2643],[-47.6668,-13.2084],[-47.6454,-13.1505],[-47.6463,-13.1205],[-47.6171,-13.1036],[-47.5687,-13.1169],[-47.565,-13.1803],[-47.5406,-13.1917],[-47.4775,-13.1872],[-47.488,-13.2121],[-47.4539,-13.2517],[-47.4172,-13.2708],[-47.3929,-13.2624],[-47.3797,-13.2306],[-47.2814,-13.2647],[-47.2524,-13.2126],[-47.225,-13.1935],[-47.1548,-13.2101],[-47.1325,-13.1781],[-47.0915,-13.1734],[-47.0106,-13.141],[-46.8941,-13.0541],[-46.8548,-13.0676],[-46.8228,-13.0068],[-46.7506,-12.9692],[-46.6354,-12.9699],[-46.4546,-12.9712],[-46.4459,-12.9358],[-46.4328,-12.9294],[-46.418,-12.8224],[-46.3976,-12.8513],[-46.3657,-12.8635],[-46.3709,-12.9877],[-46.3048,-12.9785],[-46.2293,-12.9576],[-46.1982,-12.9573],[-46.113,-12.918],[-46.1674,-12.9282],[-46.2215,-12.9502],[-46.2647,-12.9397],[-46.3079,-12.9417],[-46.2907,-12.9005],[-46.3005,-12.8572],[-46.2736,-12.816],[-46.3105,-12.7955],[-46.2824,-12.7639],[-46.2681,-12.7162],[-46.3025,-12.6847],[-46.2678,-12.6506],[-46.3071,-12.6367],[-46.2758,-12.5944],[-46.2699,-12.5509],[-46.1983,-12.5041],[-46.1982,-12.504],[-46.266,-12.4987],[-46.2705,-12.4316],[-46.3226,-12.4062],[-46.3003,-12.3636],[-46.3452,-12.3662],[-46.3703,-12.3475],[-46.3491,-12.2991],[-46.3883,-12.2491],[-46.3696,-12.2317],[-46.3925,-12.1706],[-46.3712,-12.0997],[-46.3889,-12.0488],[-46.4219,-12.0286],[-46.3639,-11.9909],[-46.3363,-11.9544],[-46.2477,-11.9193],[-46.3068,-11.9137],[-46.3805,-11.867],[-46.373,-11.8323],[-46.3376,-11.8131],[-46.3376,-11.794],[-46.3736,-11.7682],[-46.3421,-11.7375],[-46.3078,-11.6866],[-46.3279,-11.6763],[-46.3411,-11.6102],[-46.244,-11.6054],[-46.2265,-11.6363],[-46.1551,-11.6502],[-46.1445,-11.6243],[-46.0809,-11.624],[-46.1128,-11.606],[-46.2095,-11.5853],[-46.2505,-11.5367],[-46.3504,-11.5062],[-46.4393,-11.521],[-46.5237,-11.4636],[-46.5315,-11.3766],[-46.5599,-11.3716],[-46.5765,-11.342],[-46.553,-11.2654],[-46.3416,-10.939],[-46.2673,-10.9348],[-46.2605,-10.812],[-46.2264,-10.7829],[-46.2061,-10.7978],[-46.1926,-10.7428],[-46.1652,-10.7225],[-46.1503,-10.6916],[-46.1608,-10.6594],[-46.1276,-10.6206],[-46.0608,-10.6002],[-45.9292,-10.5216],[-45.8709,-10.5033],[-45.8202,-10.4561],[-45.7982,-10.3232],[-45.7269,-10.3125],[-45.6993,-10.2586],[-45.702,-10.1794],[-45.7235,-10.1554],[-45.7273,-10.2034],[-45.744,-10.24],[-45.7937,-10.2677],[-45.8671,-10.2541],[-45.8967,-10.2643],[-45.9156,-10.3127],[-45.8872,-10.3405],[-45.9109,-10.3711],[-45.9711,-10.3589],[-45.9999,-10.2967],[-46.0282,-10.2771],[-46.0124,-10.2507],[-46.0283,-10.1769],[-46.0928,-10.2099],[-46.1633,-10.2136],[-46.1949,-10.183],[-46.2109,-10.1697],[-46.2683,-10.1812],[-46.3248,-10.1832],[-46.3679,-10.1688],[-46.384,-10.1201],[-46.4207,-10.0809],[-46.4452,-10.0774],[-46.4571,-10.018],[-46.4773,-9.9898],[-46.4657,-9.9371],[-46.4751,-9.9045],[-46.4729,-9.8774],[-46.5129,-9.7975],[-46.5625,-9.8107],[-46.5693,-9.7697],[-46.5961,-9.7473],[-46.6444,-9.7403],[-46.6533,-9.6934],[-46.6131,-9.6658],[-46.5831,-9.5856],[-46.5392,-9.5601],[-46.5745,-9.5207],[-46.5733,-9.4778],[-46.6254,-9.4664],[-46.6481,-9.447],[-46.6328,-9.4116],[-46.666,-9.3919],[-46.7233,-9.3964],[-46.7587,-9.3812],[-46.7992,-9.3388],[-46.8188,-9.3034],[-46.8471,-9.2924],[-46.8191,-9.2574],[-46.8196,-9.2116],[-46.8524,-9.1861],[-46.8611,-9.1464],[-46.9303,-9.106],[-46.9121,-9.0827],[-46.9403,-9.0637],[-46.9759,-9.0817],[-47.0073,-9.0822],[-47.0577,-9.053],[-47.0383,-9.0006],[-47.0209,-8.9877],[-47.0113,-8.9466],[-46.9703,-8.9145],[-46.9929,-8.8789],[-46.9181,-8.857],[-46.9028,-8.8145],[-46.905,-8.7755],[-46.9261,-8.7353],[-46.8869,-8.6865],[-46.9164,-8.6484],[-46.9023,-8.5863],[-46.8461,-8.534],[-46.8491,-8.4747],[-46.8005,-8.4541],[-46.8026,-8.4061],[-46.7769,-8.3684],[-46.7267,-8.3831],[-46.7028,-8.3483],[-46.6332,-8.3183],[-46.594,-8.3272],[-46.544,-8.3174],[-46.5077,-8.2696],[-46.4917,-8.1926],[-46.5152,-8.1714],[-46.4826,-8.0908],[-46.4657,-8.0727],[-46.4764,-8.0147],[-46.5012,-7.9732],[-46.5497,-7.9511],[-46.581,-7.9083],[-46.6051,-7.8967],[-46.7231,-7.9218],[-46.8066,-7.951],[-46.8291,-7.9624],[-46.8833,-7.9642],[-46.9413,-7.9977],[-46.9635,-8.0391],[-47.0148,-8.0588],[-47.0458,-8.0528],[-47.0627,-8.0042],[-47.0998,-7.9847],[-47.1059,-7.9521],[-47.1396,-7.9255],[-47.1806,-7.8595],[-47.2405,-7.8138],[-47.246,-7.781],[-47.3172,-7.7044],[-47.3576,-7.6161],[-47.3832,-7.5998],[-47.4002,-7.5679],[-47.4298,-7.5472],[-47.4964,-7.4814],[-47.5028,-7.4391],[-47.5276,-7.4334],[-47.5608,-7.4498],[-47.5916,-7.4401],[-47.5799,-7.4187],[-47.493,-7.3759],[-47.4782,-7.3368],[-47.4998,-7.2939],[-47.5429,-7.2654],[-47.5919,-7.264],[-47.627,-7.3008],[-47.6507,-7.3023],[-47.684,-7.2454],[-47.7375,-7.2169],[-47.7451,-7.1625],[-47.7107,-7.1377],[-47.6604,-7.1514],[-47.6275,-7.1216],[-47.6184,-7.0912],[-47.5471,-7.0167],[-47.5296,-6.946],[-47.5076,-6.9072],[-47.5205,-6.8405],[-47.5289,-6.8281],[-47.4937,-6.7513],[-47.4962,-6.6972],[-47.4986,-6.6712],[-47.4688,-6.6212],[-47.4651,-6.5815],[-47.4565,-6.5383],[-47.4252,-6.4974],[-47.4163,-6.4839],[-47.4303,-6.4226]]]}}]}